#aV2024  6 21  0  0  0.00000000     288 DD+AD WGS84 FIT  NGA
## 2319 432000.00000000   300.00000000 60482 0.0000000000000
+   31     2  3  4  5  6  7  8  9 10 11 12 13 14 15 16 17 18
+         19 20 21 22 23 24 25 26 27 28 29 30 31 32  0  0  0
+          0  0  0  0  0  0  0  0  0  0  0  0  0  0  0  0  0
+          0  0  0  0  0  0  0  0  0  0  0  0  0  0  0  0  0
+          0  0  0  0  0  0  0  0  0  0  0  0  0  0  0  0  0
++         2  2  2  2  2  2  2  2  2  2  2  2  2  2  2  2  2
++         2  2  2  2  2  2  2  2  2  2  2  2  2  2  0  0  0
++         0  0  0  0  0  0  0  0  0  0  0  0  0  0  0  0  0
++         0  0  0  0  0  0  0  0  0  0  0  0  0  0  0  0  0
++         0  0  0  0  0  0  0  0  0  0  0  0  0  0  0  0  0
%c cc cc ccc ccc cccc cccc cccc cccc ccccc ccccc ccccc ccccc
%c cc cc ccc ccc cccc cccc cccc cccc ccccc ccccc ccccc ccccc
%f  0.0000000  0.000000000  0.00000000000  0.000000000000000
%f  0.0000000  0.000000000  0.00000000000  0.000000000000000
%i    0    0    0    0      0      0      0      0         0
%i    0    0    0    0      0      0      0      0         0
/*      NGA, ST. LOUIS,MO.                                  
/*   EPHEMERIS COMPUTED FROM 2 DAYS OF DATA                 
/*   EPOCHA v9 SMOOTHER                                     
/*   G2296 IERS2010 SATIGS SATAPC                           
*  2024  6 21 21 40  0.00000000
P  2 -14660.824711  21720.906206   3641.510585   -413.370144                    
V  2   -514.424383  -4918.441712  31645.047456      0.071164                    
P  3 -11985.260577  12654.036833 -20164.985020    424.377117                    
V  3 -25117.810645  -2455.146351  13611.970925      0.176491                    
P  4  -4684.558393  19163.913909 -17701.724173    388.124656                    
V  4 -10909.911634 -19804.872970 -18667.689220      0.080159                    
P  5  24438.441624  -5657.090271   8675.921849   -177.136999                    
V  5  11207.732193   2360.634167 -29332.255232     -0.013365                    
P  6  12120.773467   8064.846478 -22154.398137    205.408225                    
V  6 -15874.137255  23302.407152    -97.027472     -0.215751                    
P  7  -1600.215884  21968.814689  15017.996798    -86.984290                    
V  7 -12162.304638  14005.743903 -23032.058446      0.094679                    
P  8 -12193.862505   9485.731410  21465.183293    240.685791                    
V  8 -13658.856210 -23966.604153   3236.669706      0.176862                    
P  9   6125.491415  24356.679675  -8641.124231    243.735447                    
V  9  -7477.326912  -8339.144045 -29134.928253      0.146917                    
P 10 -19934.611187 -10740.649811  14351.832662    -48.064806                    
V 10  17740.202158   -231.599613  24512.793115     -0.085964                    
P 11  19017.020051  -5322.538790 -17712.336893   -690.294061                    
V 11 -11979.804195  19163.240201 -18650.853140     -0.077953                    
P 12  14972.092316 -11418.315527 -18992.533722   -516.052116                    
V 12  23184.695859   4323.418433  15961.649511     -0.031830                    
P 13  15454.352883     74.136184  21419.763563    659.529074                    
V 13   8434.338049  26313.489829  -5887.144099      0.025980                    
P 14  16414.241687  13195.320088  16349.039197    430.990470                    
V 14 -20741.850248    299.659634  20416.684809      0.090613                    
P 15  10923.684891 -11238.693740  20929.087048    172.721588                    
V 15  16578.428979  22402.120675   3485.893936      0.042016                    
P 16 -26085.826096    261.698180   5784.324027   -257.816634                    
V 16  -7257.420038  -3459.374803 -30362.127456      0.106188                    
P 17  13073.220660  22465.716658  -4603.857741    690.977400                    
V 17     37.576732   6942.047015  31318.332808     -0.060498                    
P 18   2078.117717 -21484.402401  15349.881908   -627.846992                    
V 18  12547.062931 -15071.591419 -23006.820206     -0.047019                    
P 19  16168.925727  16658.707614 -13437.650286    499.729827                    
V 19   4249.411740  16147.792271  25067.446633      0.053819                    
P 20  26349.124957  -2176.736607  -1344.072923    373.582434                    
V 20  -1406.246215   3347.154159 -31648.343843     -0.004232                    
P 21 -16650.889785  18197.509874   8763.008950    113.930994                    
V 21   2198.603765 -11119.557025  29684.579234     -0.025204                    
P 22  21933.112020  10710.292633  10523.401224    -30.273489                    
V 22 -13090.642158    653.289402  28010.278312     -0.048382                    
P 23  -8452.472147 -14245.185326  20833.333449    255.912912                    
V 23  26301.289244    174.933011  10606.270522      0.091016                    
P 24  14856.337829 -21207.109502   4406.210511   -479.185998                    
V 24    657.369617   7359.312969  30719.252836     -0.023353                    
P 25   3594.213783 -15362.162667 -21683.577848    497.651289                    
V 25  26763.878458   1535.658467   3659.093653      0.004960                    
P 26 -25168.592128  -5116.747998  -7631.087470    133.087321                    
V 26   9362.439955  -3389.473870 -28818.937731     -0.063994                    
P 27 -17101.839332  -2902.046175  19940.285306    -28.995283                    
V 27 -10949.301915 -23425.676218 -12205.373656     -0.012420                    
P 28 -11264.599381 -10546.205783 -21627.595003   -299.071046                    
V 28  14610.406207 -23227.877547   3717.768274     -0.165937                    
P 29  -1630.795649 -24011.165340 -11148.723630   -593.156775                    
V 29   7416.998092  12202.763789 -27609.377165      0.017435                    
P 30   7718.251286  15461.662819  20254.328832   -370.444166                    
V 30 -15139.332807  20625.012057 -10317.401702      0.062520                    
P 31 -17793.134781    756.429341 -20037.327810   -227.263201                    
V 31  13334.440897 -21027.694037 -12386.188924      0.002129                    
P 32 -15651.195915 -20521.504250  -6488.196367   -615.449118                    
V 32  -1634.696993  -8686.869561  30221.380338      0.013463                    
EOF
